TEST1                   
1 88888U 00001AAA 94098.00000000  .00073094  13844-3  66816-4 0    12
2 88888  72.8435 115.9689 0086731  52.6988 110.5714 16.05824518  1058
